"1 36558U 93036BDU 22076.05624014  .00001369  00000+0  41371-3 0  9994",
"2 36558  74.0486 191.9851 0017627 258.4059 101.5119 14.43278985654844",
"1 36559U 93036BDV 22072.63213928  .00002079  00000+0  15312-2 0  9997",
"2 36559  74.1355 145.3695 0321139 157.8852 203.6492 13.74292879621516",
"1 36614U 93036BEC 22075.65101595  .00002015  00000+0  62053-3 0  9995",
"2 36614  74.0308 219.4054 0023722 262.0011  97.8453 14.41981972458107",
"1 36615U 93036BED 22076.02004775  .00011366  00000+0  29984-2 0  9994",
"2 36615  74.0589  88.3360 0092654  84.6143 276.5577 14.46455707507471",
"1 36622U 93036BEL 22076.91411117  .00001042  00000+0  20335-3 0  9994",
"2 36622  74.0197 267.0500 0086608  24.1855 336.3339 14.61981733641219",
"1 36625U 93036BEP 22076.88459583  .00002732  00000+0  44294-3 0  9999",
"2 36625  73.8840 143.3372 0056219  77.2225  40.2730 14.70694115664544",
"1 36626U 93036BEQ 22076.50257691  .00006048  00000+0  37978-3 0  9990",
"2 36626  74.0418 160.2515 0144735 194.8041 164.8891 15.01121206475888",
"1 36630U 93036BEU 22076.16944074  .00002904  00000+0  89430-3 0  9992",
"2 36630  73.9805 243.9485 0042709 331.5776  28.3049 14.41400444391028",
"1 36632U 93036BEW 22074.87200120  .00001010  00000+0  36761-3 0  9993",
"2 36632  74.0043 296.1409 0038816   8.5023 351.6777 14.34044922637628",
"1 37084U 93036BFE 22076.19705607  .00002364  00000+0  26435-3 0  9992",
"2 37084  74.0361  12.3505 0136522  93.3565 268.3240 14.80954716459302",
"1 37085U 93036BFF 22077.03341968  .00002478  00000+0  34466-3 0  9992",
"2 37085  73.9798  96.3620 0091691 261.2106  97.8676 14.75571499657191",
"1 37086U 93036BFG 22076.13335041  .00004468  00000+0  83839-3 0  9997",
"2 37086  74.0042 334.6195 0051747  86.6341 274.0744 14.64161964487904",
"1 37087U 93036BFH 22075.89612205  .00005274  00000+0  10500-2 0  9990",
"2 37087  74.0173 264.1839 0188673 345.5027  14.0761 14.51579576458311",
"1 37088U 93036BFJ 22076.36626089  .00004024  00000+0  70651-3 0  9995",
"2 37088  74.0201 313.7038 0023005  72.4595 287.9086 14.67862994632523",
"1 37089U 93036BFK 22075.87891468  .00002403  00000+0  83694-3 0  9996",
"2 37089  74.0471 135.1378 0203306 211.4112 147.4766 14.25004782464918",
"1 37092U 93036BFN 22072.38082482  .00018583  00000+0  23185-2 0  9995",
"2 37092  74.0183 314.8727 0008195 314.7847  45.2663 14.82353285450258",
"1 37093U 93036BFP 22072.96872320  .00005306  00000+0  83187-3 0  9996",
"2 37093  74.0223 325.3109 0157327 198.3260 161.2204 14.64899282650874",
"1 37094U 93036BFQ 22071.69862928  .00001367  00000+0  53366-3 0  9998",
"2 37094  74.1112  91.3710 0095105  57.1137 303.9118 14.28057958648783",
"1 37095U 93036BFR 22074.63268476  .00001688  00000+0  10663-2 0  9992",
"2 37095  73.8503  58.8048 0215203   5.1189 355.2068 13.94142806435157",
"1 37101U 93036BFX 22063.00019140  .00001430  00000+0  39455-3 0  9997",
"2 37101  74.0412 180.5817 0063507 252.6804 106.7401 14.46588781627927",
"1 37103U 93036BFZ 22076.16613680  .00034207  00000+0  21867-2 0  9994",
"2 37103  73.7747 233.7932 0043762   0.2059 359.9140 15.07664854663998",
"1 37105U 93036BGB 22072.05487943  .00002757  00000+0  12552-2 0  9997",
"2 37105  73.8886 212.7281 0384357  65.5245 298.5458 13.89425554646179",
"1 37108U 93036BGE 22076.91675960  .00001288  00000+0  49527-3 0  9998",
"2 37108  74.0489  56.2686 0112846 108.7339 252.6096 14.27903287659372",
"1 37110U 93036BGG 22076.88850374  .00008803  00000+0  11278-2 0  9992",
"2 37110  73.8001  38.3487 0050374  62.2996 298.3277 14.80520764643940",
"1 37114U 93036BGL 22075.22528580  .00006062  00000+0  14052-2 0  9992",
"2 37114  73.8184  37.4949 0055484 231.9359 127.6790 14.54325986390385",
"1 37118U 93036BGQ 22060.99655814  .00001799  00000+0  50147-3 0  9993",
"2 37118  74.0292 194.1963 0012177 250.0946 109.8901 14.47007666652476",
"1 37120U 93036BGS 22064.95796181  .00004256  00000+0  12696-2 0  9996",
"2 37120  74.0154 295.0869 0047770 322.7715  37.0132 14.42671917460735",
"1 37123U 93036BGV 22075.36679574  .00007990  00000+0  13313-2 0  9997",
"2 37123  73.9937 321.1321 0010606 107.8111  15.6731 14.70115412462338",
"1 37124U 93036BGW 22076.11173383  .00005910  00000+0  14499-2 0  9995",
"2 37124  74.0111 231.1940 0078912 300.8240  58.5171 14.50722588456517",
"1 37125U 93036BGX 22076.14025812  .00009316  00000+0  13275-2 0  9997",
"2 37125  74.0198 243.9497 0021444  28.4173 331.8166 14.76742352288183",
"1 37126U 93036BGY 22074.44699884  .00000715  00000+0  11809-3 0  9991",
"2 37126  73.9526 138.9271 0136116 336.3103  23.1834 14.66608138466168",
"1 37127U 93036BGZ 22072.07357896  .00006307  00000+0  16609-2 0  9998",
"2 37127  74.0090 217.2167 0037497 242.1298 117.6061 14.48808160447193",
"1 37131U 93036BHD 22076.24664161  .00006692  00000+0  13488-2 0  9991",
"2 37131  74.0196  64.6361 0012065 113.5527 246.6908 14.61633562655703",
"1 37132U 93036BHE 22075.46540028  .00001912  00000+0  42040-3 0  9997",
"2 37132  74.0120 349.4728 0057167 126.4057 234.2399 14.57217555423913",
"1 37133U 93036BHF 22075.84198093  .00004725  00000+0  26172-2 0  9993",
"2 37133  74.0111 277.6944 0279928  37.5206 324.5099 13.93539254390752",
"1 37269U 93036BHH 22076.30583800  .00001392  00000+0  67377-3 0  9999",
"2 37269  74.1693 297.3676 0128191 186.9368 173.0007 14.15145473462951",
"1 37270U 93036BHJ 22065.86568779  .00001863  00000+0  17129-2 0  9990",
"2 37270  73.9396  33.3680 0446101 305.6700  50.3636 13.46399129585781",
"1 37271U 93036BHK 22076.02405733  .00023988  00000+0  23734-2 0  9992",
"2 37271  74.0426 185.4091 0012669 293.4010  66.5839 14.91736444469139",
"1 37273U 93036BHM 22072.61746155  .00006748  00000+0  16571-2 0  9997",
"2 37273  74.0082 173.6288 0030091 207.4595 152.4979 14.52250373624859",
"1 37277U 93036BHR 22075.95946967  .00004263  00000+0  10880-2 0  9991",
"2 37277  74.0475 179.0846 0031510 198.3966 161.6058 14.50528736389673",
"1 37278U 93036BHS 22072.24948097  .00001344  00000+0  54269-3 0  9994",
"2 37278  73.7875 272.1419 0338742 326.2145 151.2746 14.02108111445460",
"1 37280U 93036BHU 22076.40707099  .00002030  00000+0  10747-2 0  9999",
"2 37280  74.0184 314.7159 0156804  37.9251 323.2807 14.08213040380264",
"1 37282U 93036BHW 22075.88810916  .00004445  00000+0  84543-3 0  9993",
"2 37282  73.8929 307.6834 0073028 354.4791   5.5561 14.62719284672625",
"1 37284U 93036BHY 22076.17063553  .00001829  00000+0  10366-2 0  9999",
"2 37284  74.0219  31.6710 0185939 133.9399 241.2477 14.02353528399594",
"1 37287U 93036BJB 22075.31254444  .00101956  00000+0  11844-2 0  9992",
"2 37287  74.0289 189.8708 0037101 206.3041 184.9196 15.60467703676767",
"1 37292U 93036BJG 22071.70103947  .00001593  00000+0  10166-2 0  9990",
"2 37292  74.1335 236.4663 0238825 225.9889 132.1342 13.91317385407120",
"1 37293U 93036BJH 22071.30807733  .00001310  00000+0  47958-3 0  9998",
"2 37293  73.9228 302.0483 0083480 144.7414 215.9299 14.31944836456718",
"1 37294U 93036BJJ 22076.13703220  .00004660  00000+0  89998-3 0  9992",
"2 37294  74.0703  29.7871 0032111  46.0926 314.2884 14.63381809646703",
"1 37295U 93036BJK 22075.48262231  .00001017  00000+0  24266-3 0  9992",
"2 37295  74.0124   9.7416 0055251 165.1313 195.1490 14.54119728623687",
"1 37296U 93036BJL 22075.83480580  .00005018  00000+0  13162-2 0  9998",
"2 37296  73.8313 132.5721 0070644 321.8051  37.8112 14.48009277616867",
"1 37297U 93036BJM 22075.97202646  .00004696  00000+0  86028-3 0  9992",
"2 37297  74.0241 332.6802 0019129 115.9426 244.3716 14.65969327445891",
"1 37299U 93036BJP 22072.27576036  .00058627  00000+0  39513-2 0  9990",
"2 37299  73.8515  73.8936 0024446 164.2912 195.9041 15.06123762453714",
"1 37303U 93036BJT 22071.71520343  .00073926  00000+0  42935-2 0  9995",
"2 37303  73.9980  65.2578 0014388 184.1693 175.9383 15.11652242444448",
"1 37305U 93036BJV 22076.26955126  .00000760  00000+0  30573-3 0  9995",
"2 37305  73.8698 288.2412 0054563 159.5009 200.8347 14.29057246473064",
"1 37306U 93036BJW 22075.59820779  .00007316  00000+0  13412-2 0  9992",
"2 37306  74.0783  40.2600 0077332  50.0888  69.4087 14.63984619682004",
"1 37307U 93036BJX 22070.25605501  .00076313  00000+0  41845-2 0  9999",
"2 37307  74.0148  28.9762 0014751 144.8133 215.4038 15.13699862685486",
"1 37312U 93036BKC 22075.56778405  .00000825  00000+0  27251-3 0  9999",
"2 37312  74.0337 220.2207 0020303 297.6048  62.3044 14.39515307664778",
"1 37314U 93036BKE 22077.07397250  .00009429  00000+0  79423-3 0  9991",
"2 37314  73.9317 315.8208 0068119 227.7361 131.8035 14.96499615658273",
"1 37316U 93036BKG 22076.39541229  .00002339  00000+0  58298-3 0  9994",
"2 37316  74.0373 131.9047 0073120 197.0250 162.8457 14.50615573661304",
"1 37320U 93036BKL 22073.45908933  .00002306  00000+0  47681-3 0  9990",
"2 37320  74.0558 338.3652 0064137  61.2918 299.4673 14.59628677460672",
"1 37322U 93036BKN 22073.35691499  .00055517  00000+0  42636-2 0  9993",
"2 37322  74.0497  41.2573 0033434  71.3748  78.4974 15.01025918621380",
"1 37325U 93036BKR 22076.04491040  .00007159  00000+0  11721-2 0  9995",
"2 37325  74.1216   2.8339 0038693 305.2400  54.5153 14.70445445669014",
"1 37326U 93036BKS 22076.19568859  .00000938  00000+0  23321-3 0  9993",
"2 37326  74.0282  46.8185 0066876 157.4634 202.9489 14.51853321655969",
"1 37327U 93036BKT 22074.77348991  .00003287  00000+0  78820-3 0  9993",
"2 37327  74.0233 104.5877 0022491 186.9172 173.1684 14.53723607460634",
"1 37329U 93036BKV 22077.13173724  .00063255  00000+0  29762-2 0  9999",
"2 37329  73.9990  14.2555 0012678 124.9662 235.2728 15.19175456677125",
"1 37330U 93036BKW 22076.16202478  .00000601  00000+0  14796-3 0  9990",
"2 37330  74.0216   8.7104 0064892 194.7035 165.2242 14.53286913664804",
"1 37331U 93036BKX 22076.55702607  .00000994  00000+0  39606-3 0  9995",
"2 37331  74.0775  31.6203 0060635  30.9244 329.5453 14.28857196652113",
"1 37336U 93036BLC 22075.30572534  .00000107  00000+0  49400-4 0  9996",
"2 37336  74.0409 305.5928 0030281 356.1778   3.9136 14.31890568455428",
